CIC_OEM_VERS = 2.0
CREATION_DATE = 2020-04-19T13:19:22.174
ORIGINATOR = GorgiAstro

META_START
OBJECT_NAME = MARS
OBJECT_ID = MARS
CENTER_NAME = SUN
REF_FRAME = ICRF
TIME_SYSTEM = TAI
META_STOP

51179 0  -237566963.143000 65292220.752000 36370985.328000  -6.329482000 -19.206096000 -8.638151000
51180 0  -238106205.870000 63630737.810000 35623490.537000  -6.152913000 -19.253954000 -8.664878000
51181 0  -238630173.710000 61965172.655000 34873710.164000  -5.975898000 -19.300591000 -8.691057000
51182 0  -239138828.508000 60295630.962000 34121691.665000  -5.798446000 -19.346003000 -8.716686000
51183 0  -239632132.801000 58622218.655000 33367482.630000  -5.620564000 -19.390188000 -8.741764000
51184 0  -240110049.811000 56945041.908000 32611130.778000  -5.442260000 -19.433143000 -8.766288000
51185 0  -240572543.456000 55264207.140000 31852683.966000  -5.263543000 -19.474864000 -8.790258000
51186 0  -241019578.344000 53579821.018000 31092190.178000  -5.084420000 -19.515349000 -8.813672000
51187 0  -241451119.781000 51891990.452000 30329697.533000  -4.904900000 -19.554596000 -8.836528000
